{
    "links": {
        "self": "http://www.neowsapp.com/rest/v1/neo/3092499?api_key=iIulBulltgU6a56xZRHN4H3l9WmuAYTsLGpBGhQ2"
    },
    "id": "3092499",
    "neo_reference_id": "3092499",
    "name": "(2001 WV1)",
    "designation": "2001 WV1",
    "nasa_jpl_url": "http://ssd.jpl.nasa.gov/sbdb.cgi?sstr=3092499",
    "absolute_magnitude_h": 22.5,
    "estimated_diameter": {
        "kilometers": {
            "estimated_diameter_min": 0.0840533402,
            "estimated_diameter_max": 0.1879489824
        },
        "meters": {
            "estimated_diameter_min": 84.0533402073,
            "estimated_diameter_max": 187.9489824394
        },
        "miles": {
            "estimated_diameter_min": 0.0522283081,
            "estimated_diameter_max": 0.1167860472
        },
        "feet": {
            "estimated_diameter_min": 275.7655606856,
            "estimated_diameter_max": 616.6305395464
        }
    },
    "is_potentially_hazardous_asteroid": false,
    "close_approach_data": [
        {
            "close_approach_date": "2000-01-30",
            "close_approach_date_full": "2000-Jan-30 16:19",
            "epoch_date_close_approach": 949249140000,
            "relative_velocity": {
                "kilometers_per_second": "13.4558131466",
                "kilometers_per_hour": "48440.9273277751",
                "miles_per_hour": "30099.3084276389"
            },
            "miss_distance": {
                "astronomical": "0.0309721052",
                "lunar": "12.0481489228",
                "kilometers": "4633360.967335924",
                "miles": "2879037.0023827912"
            },
            "orbiting_body": "Mars"
        },
        {
            "close_approach_date": "2001-11-26",
            "close_approach_date_full": "2001-Nov-26 06:22",
            "epoch_date_close_approach": 1006755720000,
            "relative_velocity": {
                "kilometers_per_second": "11.1372900426",
                "kilometers_per_hour": "40094.2441533838",
                "miles_per_hour": "24913.0040963067"
            },
            "miss_distance": {
                "astronomical": "0.0327974859",
                "lunar": "12.7582220151",
                "kilometers": "4906434.031995033",
                "miles": "3048716.7366081354"
            },
            "orbiting_body": "Earth"
        }
    ],
    "orbital_data": {
        "orbit_id": "10",
        "orbit_determination_date": "2017-04-06 09:15:49",
        "first_observation_date": "2001-11-18",
        "last_observation_date": "2001-11-21",
        "data_arc_in_days": 3,
        "observations_used": 51,
        "orbit_uncertainty": "8",
        "minimum_orbit_intersection": ".00174622",
        "jupiter_tisserand_invariant": "4.638",
        "epoch_osculation": "2452233.5",
        "eccentricity": ".4519814651809326",
        "semi_major_axis": "1.40162437263224",
        "inclination": "1.500824138013203",
        "ascending_node_longitude": "207.1453905830662",
        "orbital_period": "606.102238562455",
        "perihelion_distance": ".7681161350566147",
        "perihelion_argument": "287.7968149176887",
        "aphelion_distance": "2.035132610207865",
        "perihelion_time": "2452288.831501326407",
        "mean_anomaly": "327.1353458044456",
        "mean_motion": ".5939591987877211",
        "equinox": "J2000",
        "orbit_class": {
            "orbit_class_type": "APO",
            "orbit_class_description": "Near-Earth asteroid orbits which cross the Earth’s orbit similar to that of 1862 Apollo",
            "orbit_class_range": "a (semi-major axis) > 1.0 AU; q (perihelion) < 1.017 AU"
        }
    },
    "is_sentry_object": false
}